QIANFAN-49              
1 62250U 24232P   25352.24696241  .00000107  00000+0  14744-3 0  9999
2 62250  89.0022  40.6809 0014762 171.7240 188.4158 13.50980010 68586
QIANFAN-50              
1 62251U 24232Q   25352.19756087  .00000036  00000+0  36752-4 0  9994
2 62251  89.0027  40.6942 0016364 173.9169 186.2184 13.50981165 68604
QIANFAN-51              
1 62252U 24232R   25352.25519774  .00000094  00000+0  12652-3 0  9998
2 62252  89.0021  40.6821 0013744 176.0429 184.0833 13.50979571 68602
QIANFAN-52              
1 62253U 24232S   25352.20994801  .00000098  00000+0  13345-3 0  9996
2 62253  89.0018  40.5601 0015981 169.7826 190.3653 13.50977722 68683
QIANFAN-53              
1 62254U 24232T   25352.26341545  .00000088  00000+0  11789-3 0  9993
2 62254  89.0025  40.6596 0014839 170.1612 189.9832 13.50980070 68656
QIANFAN-54              
1 62255U 24232U   25352.23050924  .00000095  00000+0  12804-3 0  9996
2 62255  89.0016  40.3408 0002115 162.9698 197.1524 13.50980297100155
QIANFAN-55              
1 62785U 25016A   25352.25655676  .00000148  00000+0  21003-3 0  9992
2 62785  88.9783 102.6409 0016136 336.8130  23.2292 13.50988999 47930
QIANFAN-56              
1 62786U 25016B   25352.27300650  .00000145  00000+0  20565-3 0  9993
2 62786  88.9756 102.4742 0014844 339.7260  20.3300 13.50980126 47986
